HTV-X1                  
1 66174U 25241A   26083.32282862  .00005545  00000+0  18606-3 0  9992
2 66174  51.6376   2.5775 0007466 227.6504 132.3845 15.32402906 23181
SZ-21 MODULE            
1 66515U 25246C   26083.45739579  .00033703  00000+0  27749-3 0  9997
2 66515  41.4738 112.3746 0000853 213.1562 146.9227 15.69668398 20398
SHENZHOU-22             
1 66645U 25272A   26083.49395739  .00019397  00000+0  22400-3 0  9992
2 66645  41.4663 118.0307 0004758  10.7895 349.3045 15.61427580279990
SOYUZ-MS 28             
1 66664U 25275A   26083.48628161  .00013391  00000+0  25488-3 0  9990
2 66664  51.6345 359.2131 0006234 227.6352 132.4108 15.48523431558676
DUPLEX                  
1 66906U 98067XS  26083.47964882  .00027087  00000+0  37156-3 0  9992
2 66906  51.6302 355.4219 0003163 176.3649 183.7366 15.57139447 17439
ISS OBJECT XT           
1 66907U 98067XT  26083.46050153  .00185654  00000+0  12240-2 0  9990
2 66907  51.6252 350.0134 0005402 175.0560 185.0493 15.74515234 17502
ISS OBJECT XU           
1 66908U 98067XU  26083.45733407  .00188153  00000+0  12296-2 0  9998
2 66908  51.6249 349.9877 0005644 175.3702 184.7351 15.74708720 17502
SILVERSAT               
1 66909U 98067XV  26082.98164823  .00288378  00000+0  15389-2 0  9992
2 66909  51.6221 351.3039 0006229 177.1516 182.9521 15.78994089 17444
ISS OBJECT XW           
1 66910U 98067XW  26083.46394234  .00165160  00000+0  11502-2 0  9995
2 66910  51.6240 350.0286 0005904 174.9033 185.2027 15.73305424 17503
ISS OBJECT XX           
1 66911U 98067XX  26083.44596692  .00391459  00000+0  15820-2 0  9995
2 66911  51.6199 347.6223 0007866 183.5979 176.4969 15.84695682 17523
ISS OBJECT XY           
1 66912U 98067XY  26083.45850020  .00094960  00000+0  88169-3 0  9999
2 66912  51.6275 352.2703 0004026 174.2260 185.8783 15.66654645 17464
KNACKSAT-2              
1 67683U 98067XZ  26083.01837906  .00038683  00000+0  61191-3 0  9991
2 67683  51.6326   0.5913 0009822 237.4563 122.5479 15.53013062  7018
